start=new Date('2022-01-02T00:00:00.000Z').valueOf();
sats=[{"LAUNCH_DATE":"2021-03-11","ECCENTRICITY":"0.00020910","OBJECT_NAME":"STARLINK-2347","SITE":"AFETR","MEAN_ELEMENT_THEORY":"SGP4","TLE_LINE1":"1 47795U 21018J   22001.80709439  .00003319  00000-0  24163-3 0  9994","EPHEMERIS_TYPE":"0","RA_OF_ASC_NODE":"250.5535","REV_AT_EPOCH":"4664","PERIAPSIS":"545.762","MEAN_MOTION_DOT":"0.00003319","OBJECT_TYPE":"PAYLOAD","APOAPSIS":"548.658","COUNTRY_CODE":"US","DECAY_DATE":null,"SEMIMAJOR_AXIS":"6925.345","FILE":"3255246","ELEMENT_SET_NO":"999","RCS_SIZE":"LARGE","REF_FRAME":"TEME","INCLINATION":"53.0551","MEAN_MOTION":"15.06401047","TIME_SYSTEM":"UTC","BSTAR":"0.00024163000000","PERIOD":"95.592","CLASSIFICATION_TYPE":"U","MEAN_MOTION_DDOT":"0.0000000000000","EPOCH":"2022-01-01T19:22:12.955296","OBJECT_ID":"2021-018J","NORAD_CAT_ID":"47795","TLE_LINE2":"2 47795  53.0551 250.5535 0002091  59.6822 300.4373 15.06401047 46640","MEAN_ANOMALY":"300.4373","GP_ID":"192893488","CENTER_NAME":"EARTH","ARG_OF_PERICENTER":"59.6822"},{"OBJECT_ID":"2021-018K","EPOCH":"2022-01-01T22:54:31.875840","MEAN_MOTION_DDOT":"0.0000000000000","CLASSIFICATION_TYPE":"U","ARG_OF_PERICENTER":"54.2734","CENTER_NAME":"EARTH","GP_ID":"192894240","MEAN_ANOMALY":"305.8443","TLE_LINE2":"2 47796  53.0537 249.8962 0002031  54.2734 305.8443 15.06398297 46613","NORAD_CAT_ID":"47796","INCLINATION":"53.0537","REF_FRAME":"TEME","RCS_SIZE":"LARGE","ELEMENT_SET_NO":"999","BSTAR":"0.00013804000000","PERIOD":"95.592","TIME_SYSTEM":"UTC","MEAN_MOTION":"15.06398297","MEAN_MOTION_DOT":"0.00001775","PERIAPSIS":"545.812","REV_AT_EPOCH":"4661","RA_OF_ASC_NODE":"249.8962","EPHEMERIS_TYPE":"0","TLE_LINE1":"1 47796U 21018K   22001.95453560  .00001775  00000-0  13804-3 0  9996","FILE":"3255246","SEMIMAJOR_AXIS":"6925.354","DECAY_DATE":null,"APOAPSIS":"548.625","COUNTRY_CODE":"US","OBJECT_TYPE":"PAYLOAD","ECCENTRICITY":"0.00020310","LAUNCH_DATE":"2021-03-11","MEAN_ELEMENT_THEORY":"SGP4","SITE":"AFETR","OBJECT_NAME":"STARLINK-2373"},{"LAUNCH_DATE":"2021-03-11","ECCENTRICITY":"0.00018230","OBJECT_NAME":"STARLINK-2377","SITE":"AFETR","MEAN_ELEMENT_THEORY":"SGP4","TLE_LINE1":"1 47797U 21018L   22001.92458103  .00000993  00000-0  85550-4 0  9991","EPHEMERIS_TYPE":"0","RA_OF_ASC_NODE":"275.0111","PERIAPSIS":"545.961","REV_AT_EPOCH":"4625","MEAN_MOTION_DOT":"0.00000993","OBJECT_TYPE":"PAYLOAD","APOAPSIS":"548.486","COUNTRY_CODE":"US","DECAY_DATE":null,"SEMIMAJOR_AXIS":"6925.358","FILE":"3255246","ELEMENT_SET_NO":"999","RCS_SIZE":"LARGE","REF_FRAME":"TEME","INCLINATION":"53.0546","MEAN_MOTION":"15.06396781","TIME_SYSTEM":"UTC","BSTAR":"0.00008555000000","PERIOD":"95.592","CLASSIFICATION_TYPE":"U","MEAN_MOTION_DDOT":"0.0000000000000","EPOCH":"2022-01-01T22:11:23.800992","OBJECT_ID":"2021-018L","NORAD_CAT_ID":"47797","TLE_LINE2":"2 47797  53.0546 275.0111 0001823  56.3372 303.7791 15.06396781 46259","MEAN_ANOMALY":"303.7791","GP_ID":"192894990","CENTER_NAME":"EARTH","ARG_OF_PERICENTER":"56.3372"},{"OBJECT_NAME":"STARLINK-2379","MEAN_ELEMENT_THEORY":"SGP4","SITE":"AFETR","LAUNCH_DATE":"2021-03-11","ECCENTRICITY":"0.00020470","DECAY_DATE":null,"OBJECT_TYPE":"PAYLOAD","APOAPSIS":"548.664","COUNTRY_CODE":"US","FILE":"3255244","SEMIMAJOR_AXIS":"6925.381","EPHEMERIS_TYPE":"0","TLE_LINE1":"1 47798U 21018M   21365.97038002  .00001453  00000-0  11650-3 0  9992","PERIAPSIS":"545.829","REV_AT_EPOCH":"4646","MEAN_MOTION_DOT":"0.00001453","RA_OF_ASC_NODE":"254.3039","MEAN_MOTION":"15.06389319","TIME_SYSTEM":"UTC","PERIOD":"95.593","BSTAR":"0.00011650000000","RCS_SIZE":"LARGE","ELEMENT_SET_NO":"999","INCLINATION":"53.0554","REF_FRAME":"TEME","TLE_LINE2":"2 47798  53.0554 254.3039 0002047  52.3282 307.7892 15.06389319 46461","MEAN_ANOMALY":"307.7892","NORAD_CAT_ID":"47798","ARG_OF_PERICENTER":"52.3282","GP_ID":"192868820","CENTER_NAME":"EARTH","CLASSIFICATION_TYPE":"U","OBJECT_ID":"2021-018M","MEAN_MOTION_DDOT":"0.0000000000000","EPOCH":"2021-12-31T23:17:20.833728"},{"TLE_LINE2":"2 47799  53.0545 250.7608 0001953  56.3289 303.7886 15.06397471 46579","MEAN_ANOMALY":"303.7886","NORAD_CAT_ID":"47799","ARG_OF_PERICENTER":"56.3289","GP_ID":"192893988","CENTER_NAME":"EARTH","CLASSIFICATION_TYPE":"U","OBJECT_ID":"2021-018N","MEAN_MOTION_DDOT":"0.0000000000000","EPOCH":"2022-01-01T18:18:31.215456","MEAN_MOTION":"15.06397471","TIME_SYSTEM":"UTC","PERIOD":"95.592","BSTAR":"0.00023579000000","RCS_SIZE":"LARGE","ELEMENT_SET_NO":"999","INCLINATION":"53.0545","REF_FRAME":"TEME","DECAY_DATE":null,"OBJECT_TYPE":"PAYLOAD","APOAPSIS":"548.574","COUNTRY_CODE":"US","FILE":"3255246","SEMIMAJOR_AXIS":"6925.356","EPHEMERIS_TYPE":"0","TLE_LINE1":"1 47799U 21018N   22001.76286129  .00003232  00000-0  23579-3 0  9993","PERIAPSIS":"545.869","REV_AT_EPOCH":"4657","MEAN_MOTION_DOT":"0.00003232","RA_OF_ASC_NODE":"250.7608","OBJECT_NAME":"STARLINK-2380","MEAN_ELEMENT_THEORY":"SGP4","SITE":"AFETR","LAUNCH_DATE":"2021-03-11","ECCENTRICITY":"0.00019530"},{"OBJECT_TYPE":"PAYLOAD","COUNTRY_CODE":"US","APOAPSIS":"548.539","DECAY_DATE":null,"SEMIMAJOR_AXIS":"6925.355","FILE":"3255246","TLE_LINE1":"1 47800U 21018P   22001.91766660  .00002076  00000-0  15826-3 0  9997","EPHEMERIS_TYPE":"0","RA_OF_ASC_NODE":"250.0577","PERIAPSIS":"545.900","REV_AT_EPOCH":"4660","MEAN_MOTION_DOT":"0.00002076","OBJECT_NAME":"STARLINK-2381","SITE":"AFETR","MEAN_ELEMENT_THEORY":"SGP4","LAUNCH_DATE":"2021-03-11","ECCENTRICITY":"0.00019060","NORAD_CAT_ID":"47800","TLE_LINE2":"2 47800  53.0556 250.0577 0001906  56.9406 303.1765 15.06398054 46609","MEAN_ANOMALY":"303.1765","GP_ID":"192894740","CENTER_NAME":"EARTH","ARG_OF_PERICENTER":"56.9406","CLASSIFICATION_TYPE":"U","MEAN_MOTION_DDOT":"0.0000000000000","EPOCH":"2022-01-01T22:01:26.394240","OBJECT_ID":"2021-018P","MEAN_MOTION":"15.06398054","TIME_SYSTEM":"UTC","BSTAR":"0.00015826000000","PERIOD":"95.592","ELEMENT_SET_NO":"999","RCS_SIZE":"LARGE","REF_FRAME":"TEME","INCLINATION":"53.0556"},{"OBJECT_TYPE":"PAYLOAD","COUNTRY_CODE":"US","APOAPSIS":"548.724","DECAY_DATE":null,"SEMIMAJOR_AXIS":"6925.354","FILE":"3255246","TLE_LINE1":"1 47801U 21018Q   22001.95222567  .00002435  00000-0  18236-3 0  9992","EPHEMERIS_TYPE":"0","RA_OF_ASC_NODE":"255.0229","REV_AT_EPOCH":"4654","PERIAPSIS":"545.714","MEAN_MOTION_DOT":"0.00002435","OBJECT_NAME":"STARLINK-2382","SITE":"AFETR","MEAN_ELEMENT_THEORY":"SGP4","LAUNCH_DATE":"2021-03-11","ECCENTRICITY":"0.00021730","NORAD_CAT_ID":"47801","TLE_LINE2":"2 47801  53.0553 255.0229 0002173  53.3456 306.7732 15.06398151 46543","MEAN_ANOMALY":"306.7732","GP_ID":"192894491","CENTER_NAME":"EARTH","ARG_OF_PERICENTER":"53.3456","CLASSIFICATION_TYPE":"U","MEAN_MOTION_DDOT":"0.0000000000000","EPOCH":"2022-01-01T22:51:12.297888","OBJECT_ID":"2021-018Q","MEAN_MOTION":"15.06398151","TIME_SYSTEM":"UTC","BSTAR":"0.00018236000000","PERIOD":"95.592","ELEMENT_SET_NO":"999","RCS_SIZE":"LARGE","REF_FRAME":"TEME","INCLINATION":"53.0553"},{"ARG_OF_PERICENTER":"121.3318","CENTER_NAME":"EARTH","GP_ID":"192868320","MEAN_ANOMALY":"238.7787","TLE_LINE2":"2 47802  53.0475 277.9866 0001184 121.3318 238.7787 15.06385283 46165","NORAD_CAT_ID":"47802","OBJECT_ID":"2021-018R","EPOCH":"2022-01-01T06:26:36.867264","MEAN_MOTION_DDOT":"0.0000000000000","CLASSIFICATION_TYPE":"U","PERIOD":"95.593","BSTAR":"-0.00009564300000","TIME_SYSTEM":"UTC","MEAN_MOTION":"15.06385283","INCLINATION":"53.0475","REF_FRAME":"TEME","RCS_SIZE":"LARGE","ELEMENT_SET_NO":"999","FILE":"3255244","SEMIMAJOR_AXIS":"6925.394","DECAY_DATE":null,"APOAPSIS":"548.079","COUNTRY_CODE":"US","OBJECT_TYPE":"PAYLOAD","MEAN_MOTION_DOT":"-0.00001705","PERIAPSIS":"546.439","REV_AT_EPOCH":"4616","RA_OF_ASC_NODE":"277.9866","EPHEMERIS_TYPE":"0","TLE_LINE1":"1 47802U 21018R   22001.26848226 -.00001705  00000-0 -95643-4 0  9992","MEAN_ELEMENT_THEORY":"SGP4","SITE":"AFETR","OBJECT_NAME":"STARLINK-2383","ECCENTRICITY":"0.00011840","LAUNCH_DATE":"2021-03-11"},{"OBJECT_ID":"2021-018S","MEAN_MOTION_DDOT":"0.0000000000000","EPOCH":"2021-12-31T22:24:17.324640","CLASSIFICATION_TYPE":"U","ARG_OF_PERICENTER":"54.1293","GP_ID":"192845071","CENTER_NAME":"EARTH","TLE_LINE2":"2 47803  53.0543 254.4782 0001879  54.1293 305.9870 15.06384807 46458","MEAN_ANOMALY":"305.9870","NORAD_CAT_ID":"47803","INCLINATION":"53.0543","REF_FRAME":"TEME","RCS_SIZE":"LARGE","ELEMENT_SET_NO":"999","TIME_SYSTEM":"UTC","BSTAR":"0.00004556900000","PERIOD":"95.593","MEAN_MOTION":"15.06384807","REV_AT_EPOCH":"4645","PERIAPSIS":"545.959","MEAN_MOTION_DOT":"0.00000397","RA_OF_ASC_NODE":"254.4782","EPHEMERIS_TYPE":"0","TLE_LINE1":"1 47803U 21018S   21365.93353385  .00000397  00000-0  45569-4 0  9992","FILE":"3255243","SEMIMAJOR_AXIS":"6925.395","DECAY_DATE":null,"OBJECT_TYPE":"PAYLOAD","COUNTRY_CODE":"US","APOAPSIS":"548.561","ECCENTRICITY":"0.00018790","LAUNCH_DATE":"2021-03-11","MEAN_ELEMENT_THEORY":"SGP4","SITE":"AFETR","OBJECT_NAME":"STARLINK-2384"},{"CLASSIFICATION_TYPE":"U","EPOCH":"2022-01-01T00:21:02.528640","MEAN_MOTION_DDOT":"0.0000000000000","OBJECT_ID":"2021-018T","NORAD_CAT_ID":"47804","MEAN_ANOMALY":"299.3596","TLE_LINE2":"2 47804  53.0543 254.1034 0001942  60.7587 299.3596 15.06400409 46465","CENTER_NAME":"EARTH","GP_ID":"192869313","ARG_OF_PERICENTER":"60.7587","ELEMENT_SET_NO":"999","RCS_SIZE":"LARGE","REF_FRAME":"TEME","INCLINATION":"53.0543","MEAN_MOTION":"15.06400409","BSTAR":"0.00033601000000","PERIOD":"95.592","TIME_SYSTEM":"UTC","TLE_LINE1":"1 47804U 21018T   22001.01461260  .00004727  00000-0  33601-3 0  9996","EPHEMERIS_TYPE":"0","RA_OF_ASC_NODE":"254.1034","MEAN_MOTION_DOT":"0.00004727","REV_AT_EPOCH":"4646","PERIAPSIS":"545.867","APOAPSIS":"548.557","COUNTRY_CODE":"US","OBJECT_TYPE":"PAYLOAD","DECAY_DATE":null,"SEMIMAJOR_AXIS":"6925.347","FILE":"3255244","LAUNCH_DATE":"2021-03-11","ECCENTRICITY":"0.00019420","OBJECT_NAME":"STARLINK-2385","SITE":"AFETR","MEAN_ELEMENT_THEORY":"SGP4"}];
